HELIOS 1B               
1 25977U 99064A   20112.05238879  .00000034  00000-0  11369-4 0  9997
2 25977  98.2730 264.9594 0002065 129.6693 230.4701 14.82472073 97910
TERRA                   
1 25994U 99068A   20112.51819540  .00000074  00000-0  26585-4 0  9991
2 25994  98.2152 187.5870 0001033  86.8790 273.2531 14.57125481 82022
SL-16 R/B               
1 26070U 00006B   20112.20747794 -.00000242  00000-0 -99212-4 0  9994
2 26070  70.9999 293.5482 0018019 217.3432 142.6440 14.15461078 44493
TITAN 4B R/B            
1 26474U 00047B   20111.68454055  .00000057  00000-0  15965-4 0  9998
2 26474  67.9939 234.7027 0060889 261.7380  97.6854 14.95938872 70687
ENVISAT                 
1 27386U 02009A   20111.94774005  .00000015  00000-0  18260-4 0  9995
2 27386  98.1383 122.0160 0001385  90.0663 326.4608 14.37977937950351
IDEFIX & ARIANE 42P R/B 
1 27422U 02021B   20111.91135075 -.00000015  00000-0  10285-4 0  9995
2 27422  98.3456  75.3792 0013168  44.9201 315.3045 14.29285896935053
AQUA                    
1 27424U 02022A   20112.14964927  .00000080  00000-0  27895-4 0  9996
2 27424  98.2053  53.6174 0002114 123.6445   1.9195 14.57116177955528
CZ-4B R/B               
1 27432U 02024C   20112.02680707 -.00000024  00000-0  11434-4 0  9996
2 27432  99.0883 113.2447 0050125 339.4704  85.7831 14.14091773925535
MIDORI II (ADEOS-II)    
1 27597U 02056A   20112.12894967  .00000019  00000-0  25343-4 0  9996
2 27597  98.5149  61.1718 0001714 117.0662 243.0694 14.27442002903633
H-2A R/B                
1 27601U 02056E   20111.74942160  .00000044  00000-0  30487-4 0  9991
2 27601  98.2328 150.4703 0073418  89.6554  23.3545 14.31945546906436
CZ-4B R/B               
1 28059U 03049C   20111.53076914  .00000008  00000-0  13829-4 0  9995
2 28059  98.4875  27.4040 0049299 316.8088  42.9245 14.52595745874407
CZ-2C R/B               
1 28222U 04012C   20111.49028878  .00000185  00000-0  15185-4 0  9992
2 28222  97.6715  73.8991 0045954 227.2301 247.0558 15.10351698877242
SL-16 R/B               
1 28353U 04021B   20112.19792191 -.00000221  00000-0 -90766-4 0  9992
2 28353  71.0010  59.4057 0003152  43.1597 316.9772 14.14226522819059
CZ-4B R/B               
1 28415U 04035C   20111.79601495  .00000680  00000-0  48604-4 0  9998
2 28415  97.6205 153.9849 0051448 187.3024 172.7460 15.06836366854959
CZ-2C R/B               
1 28480U 04046B   20112.00799778 -.00000034  00000-0  20501-5 0  9990
2 28480  98.0852 151.3855 0142629  35.6456  24.1593 14.25720031802253
ARIANE 5 R/B            
1 28499U 04049H   20111.92132272  .00000049  00000-0  13203-4 0  9998
2 28499  98.0500 213.5278 0093549  99.1696  36.2411 14.80021189827585
CZ-2D R/B               
1 28738U 05024B   20112.13657280  .00000362  00000-0  24695-4 0  9998
2 28738  97.3876 136.5961 0012686  29.3145 330.8795 15.12004291812740
SUZAKU (ASTRO-EII)      
1 28773U 05025A   20112.06067450  .00000923  00000-0  40592-4 0  9991
2 28773  31.3833  29.8386 0004444 347.0361  13.0171 15.17496613815219
ALOS (DAICHI)           
1 28931U 06002A   20111.95349471  .00000113  00000-0  30825-4 0  9995
2 28931  97.8432 100.5130 0000724  44.0351 316.0914 14.62699975759292
H-2A R/B                
1 28932U 06002B   20111.91529785  .00000497  00000-0  51605-4 0  9994
2 28932  98.3193  98.7165 0089384 149.0234 270.2219 14.92189663772569
AKARI (ASTRO-F)         
1 28939U 06005A   20112.44274677  .00002225  00000-0  61478-4 0  9990
2 28939  98.2274  80.0275 0094499 162.7504 197.6985 15.34003530772170
RESURS-DK 1             
1 29228U 06021A   20112.02907765  .00000067  00000-0  12370-4 0  9994
2 29228  69.9360 334.1873 0006038 219.6554 140.4166 15.02529697764124
GENESIS 1               
1 29252U 06029A   20112.36255868  .00000198  00000-0  19744-4 0  9993
2 29252  64.5197 128.3070 0018148 179.4398 180.6749 15.18086082759519
CZ-4B R/B               
1 29507U 06046C   20112.01274021  .00000928  00000-0  76723-4 0  9990
2 29507  97.7538 134.0126 0048053 358.3121   1.7933 15.00576493736801
CZ-2C R/B               
1 31114U 07010B   20112.06191504  .00000029  00000-0  31807-4 0  9994
2 31114  98.2691 328.7714 0060916  74.7554 286.0348 14.19317267674866
COSMO-SKYMED 1          
1 31598U 07023A   20112.16143517  .00000812  00000-0  10860-3 0  9991
2 31598  97.8894 296.1618 0001613  82.1784 277.9627 14.82153279696347
GENESIS 2               
1 31789U 07028A   20111.88851698  .00000243  00000-0  22348-4 0  9995
2 31789  64.5021 171.3265 0049322 251.3016 108.2749 15.17221358706448
COSMOS 2428             
1 31792U 07029A   20111.84382378 -.00000282  00000-0 -12715-3 0  9991
2 31792  70.9215  33.9415 0006498 160.7717 199.3650 14.12362557660730
SL-16 R/B               
1 31793U 07029B   20112.06892456 -.00000160  00000-0 -58353-4 0  9994
2 31793  70.9775   6.9060 0002231 277.2575 179.2866 14.14423778661614
KORONAS-FOTON           
1 33504U 09003A   20111.99692542  .00000593  00000-0  29351-4 0  9999
2 33504  82.4396 279.9861 0020528 116.1182 244.2165 15.15613278618680
H-2A R/B                
1 38341U 12025E   20112.00259827  .00000174  00000-0  27883-4 0  9992
2 38341  98.4918 263.3259 0056545  57.3605 303.3046 14.84014433428848
CUSAT 2 & FALCON 9 R/B  
1 39271U 13055G   20111.68838910  .00004404  00000-0  10623-3 0  9991
2 39271  80.9664 329.1244 0590528 343.9824  14.3361 14.47535605342371
SL-4 R/B                
1 39679U 14021B   20111.86239992  .00000311  00000-0  33395-4 0  9997
2 39679  51.6170  14.6761 0172579 106.1688 255.8351 15.06360594330668
ALOS-2                  
1 39766U 14029A   20112.36136916  .00000047  00000-0  13153-4 0  9996
2 39766  97.9190 209.7769 0001629  90.3541 269.7848 14.79474743319252
SL-27 R/B               
1 40354U 14084B   20111.90831940  .00000879  00000-0  22736-4 0  9990
2 40354  74.7365 147.1426 0037704   2.8801 357.2620 15.40140815299278
YAOGAN 29               
1 41038U 15069A   20112.39430618  .00000026  00000-0  10286-4 0  9996
2 41038  98.0080 100.4714 0002265  78.8504 281.2968 14.80443706237833
ASTRO-H (HITOMI)        
1 41337U 16012A   20112.18601664  .00000287  00000-0  16328-4 0  9997
2 41337  31.0070  12.8572 0012531 225.5158 134.4452 14.98672627228902
SHENZHOU-11 MODULE      
1 41868U 16061G   20112.14272280  .00039320  88810-5  11296-3 0  9992
2 41868  42.7881 138.2095 0010958  94.8923 328.9124 15.93294532196913
HXMT (HUIYAN)           
1 42758U 17034A   20112.13985492  .00000235  00000-0  28386-4 0  9999
2 42758  43.0198 350.4033 0010775  20.3191 113.7270 15.08803211157213
CZ-2C R/B               
1 43521U 18054D   20111.53018538  .00000483  00000-0  28336-4 0  9992
2 43521  35.1529 176.9218 0083314 326.3733  33.1712 15.10967244100380
AEOLUS                  
1 43600U 18066A   20112.09746915  .00030408  00000-0  11914-3 0  9995
2 43600  96.7199 119.3522 0007085  89.4742 270.7343 15.86894790 96270
SAOCOM 1A               
1 43641U 18076A   20112.23715012  .00000012  00000-0  80909-5 0  9991
2 43641  97.8895 299.1694 0001451  85.6398 274.4976 14.82152292 83125
CREW DRAGON DEMO-1 DEB  
1 44064U 19011B   20112.35808533  .00012549  00000-0  13734-3 0  9993
2 44064  51.6363 241.4929 0003751 199.0891 160.9955 15.63702939 63973
